[
    {
        "Altitude(m)": 702812.910117162,
        "Argument of Periapsis(deg)": 0.007973084830638947,
        "Eccentricity": 0.0,
        "Inclination(deg)": 45.0,
        "Latitude(deg)": 17.05479437642907,
        "Longitude(deg)": 172.2333608245748,
        "Mean Anomaly(deg)": 24.436851653236566,
        "RAAN(deg)": 254.99247364097928,
        "Satellite Name": "Constellation 1 1123",
        "Satellite Number": 1123,
        "Semi-Major Axis(m)": 7083131.272910544,
        "Time(s)": 133
    },
    {
        "Altitude(m)": 702815.1294254392,
        "Argument of Periapsis(deg)": 0.008033032836884352,
        "Eccentricity": 0.0,
        "Inclination(deg)": 45.0,
        "Latitude(deg)": 17.095924988198522,
        "Longitude(deg)": 172.2761439055507,
        "Mean Anomaly(deg)": 24.497552793486452,
        "RAAN(deg)": 254.99241705181373,
        "Satellite Name": "Constellation 1 1123",
        "Satellite Number": 1123,
        "Semi-Major Axis(m)": 7083131.272910544,
        "Time(s)": 134
    },
    {
        "Altitude(m)": 702817.3647677385,
        "Argument of Periapsis(deg)": 0.008092980843129758,
        "Eccentricity": 0.0,
        "Inclination(deg)": 45.0,
        "Latitude(deg)": 17.137044606110443,
        "Longitude(deg)": 172.31894758142144,
        "Mean Anomaly(deg)": 24.558253933736342,
        "RAAN(deg)": 254.99236046264818,
        "Satellite Name": "Constellation 1 1123",
        "Satellite Number": 1123,
        "Semi-Major Axis(m)": 7083131.272910544,
        "Time(s)": 135
    },
    {
        "Altitude(m)": 702819.6161166439,
        "Argument of Periapsis(deg)": 0.008152928849375162,
        "Eccentricity": 0.0,
        "Inclination(deg)": 45.0,
        "Latitude(deg)": 17.178153197354753,
        "Longitude(deg)": 172.36177190824122,
        "Mean Anomaly(deg)": 24.618955073986278,
        "RAAN(deg)": 254.99230387348254,
        "Satellite Name": "Constellation 1 1123",
        "Satellite Number": 1123,
        "Semi-Major Axis(m)": 7083131.272910544,
        "Time(s)": 136
    },
    {
        "Altitude(m)": 702821.8834446663,
        "Argument of Periapsis(deg)": 0.008212876855620568,
        "Eccentricity": 0.0,
        "Inclination(deg)": 45.0,
        "Latitude(deg)": 17.219250729080755,
        "Longitude(deg)": 172.40461694209543,
        "Mean Anomaly(deg)": 24.679656214236168,
        "RAAN(deg)": 254.992247284317,
        "Satellite Name": "Constellation 1 1123",
        "Satellite Number": 1123,
        "Semi-Major Axis(m)": 7083131.272910544,
        "Time(s)": 137
    },
    {
        "Altitude(m)": 702824.1667242514,
        "Argument of Periapsis(deg)": 0.008272824861865974,
        "Eccentricity": 0.0,
        "Inclination(deg)": 45.0,
        "Latitude(deg)": 17.260337168397147,
        "Longitude(deg)": 172.44748273910025,
        "Mean Anomaly(deg)": 24.74035735448605,
        "RAAN(deg)": 254.99219069515144,
        "Satellite Name": "Constellation 1 1123",
        "Satellite Number": 1123,
        "Semi-Major Axis(m)": 7083131.272910544,
        "Time(s)": 138
    },
    {
        "Altitude(m)": 702826.4659277889,
        "Argument of Periapsis(deg)": 0.00833277286811138,
        "Eccentricity": 0.0,
        "Inclination(deg)": 45.0,
        "Latitude(deg)": 17.301412482371717,
        "Longitude(deg)": 172.49036935540303,
        "Mean Anomaly(deg)": 24.801058494735987,
        "RAAN(deg)": 254.99213410598588,
        "Satellite Name": "Constellation 1 1123",
        "Satellite Number": 1123,
        "Semi-Major Axis(m)": 7083131.272910544,
        "Time(s)": 139
    },
    {
        "Altitude(m)": 702828.781027603,
        "Argument of Periapsis(deg)": 0.008392720874356788,
        "Eccentricity": 0.0,
        "Inclination(deg)": 45.0,
        "Latitude(deg)": 17.342476638031417,
        "Longitude(deg)": 172.53327684718215,
        "Mean Anomaly(deg)": 24.861759634985873,
        "RAAN(deg)": 254.99207751682027,
        "Satellite Name": "Constellation 1 1123",
        "Satellite Number": 1123,
        "Semi-Major Axis(m)": 7083131.272910544,
        "Time(s)": 140
    },
    {
        "Altitude(m)": 702831.1119959516,
        "Argument of Periapsis(deg)": 0.008452668880602192,
        "Eccentricity": 0.0,
        "Inclination(deg)": 45.0,
        "Latitude(deg)": 17.383529602362415,
        "Longitude(deg)": 172.5762051025498,
        "Mean Anomaly(deg)": 24.922460775235763,
        "RAAN(deg)": 254.99202092765472,
        "Satellite Name": "Constellation 1 1123",
        "Satellite Number": 1123,
        "Semi-Major Axis(m)": 7083131.272910544,
        "Time(s)": 141
    },
    {
        "Altitude(m)": 702833.4588050272,
        "Argument of Periapsis(deg)": 0.008512616886847598,
        "Eccentricity": 0.0,
        "Inclination(deg)": 45.0,
        "Latitude(deg)": 17.424571342308866,
        "Longitude(deg)": 172.61915451394052,
        "Mean Anomaly(deg)": 24.98316191548565,
        "RAAN(deg)": 254.99196433848914,
        "Satellite Name": "Constellation 1 1123",
        "Satellite Number": 1123,
        "Semi-Major Axis(m)": 7083131.272910544,
        "Time(s)": 142
    },
    {
        "Altitude(m)": 702835.821426971,
        "Argument of Periapsis(deg)": 0.008572564893093004,
        "Eccentricity": 0.0,
        "Inclination(deg)": 45.0,
        "Latitude(deg)": 17.465601824774534,
        "Longitude(deg)": 172.66212496952846,
        "Mean Anomaly(deg)": 25.043863055735585,
        "RAAN(deg)": 254.9919077493236,
        "Satellite Name": "Constellation 1 1123",
        "Satellite Number": 1123,
        "Semi-Major Axis(m)": 7083131.272910544,
        "Time(s)": 143
    },
    {
        "Altitude(m)": 702838.1998338467,
        "Argument of Periapsis(deg)": 0.008632512899338408,
        "Eccentricity": 0.0,
        "Inclination(deg)": 45.0,
        "Latitude(deg)": 17.506621016621533,
        "Longitude(deg)": 172.70511652561586,
        "Mean Anomaly(deg)": 25.104564195985468,
        "RAAN(deg)": 254.99185116015803,
        "Satellite Name": "Constellation 1 1123",
        "Satellite Number": 1123,
        "Semi-Major Axis(m)": 7083131.272910544,
        "Time(s)": 144
    },
    {
        "Altitude(m)": 702840.5939976652,
        "Argument of Periapsis(deg)": 0.008692460905583814,
        "Eccentricity": 0.0,
        "Inclination(deg)": 45.0,
        "Latitude(deg)": 17.547628884670466,
        "Longitude(deg)": 172.74812923853602,
        "Mean Anomaly(deg)": 25.165265336235358,
        "RAAN(deg)": 254.99179457099243,
        "Satellite Name": "Constellation 1 1123",
        "Satellite Number": 1123,
        "Semi-Major Axis(m)": 7083131.272910544,
        "Time(s)": 145
    },
    {
        "Altitude(m)": 702843.0038903701,
        "Argument of Periapsis(deg)": 0.00875240891182922,
        "Eccentricity": 0.0,
        "Inclination(deg)": 45.0,
        "Latitude(deg)": 17.588625395700387,
        "Longitude(deg)": 172.79116316465291,
        "Mean Anomaly(deg)": 25.225966476485294,
        "RAAN(deg)": 254.99173798182687,
        "Satellite Name": "Constellation 1 1123",
        "Satellite Number": 1123,
        "Semi-Major Axis(m)": 7083131.272910544,
        "Time(s)": 146
    },
    {
        "Altitude(m)": 702845.4294838399,
        "Argument of Periapsis(deg)": 0.008812356918074627,
        "Eccentricity": 0.0,
        "Inclination(deg)": 45.0,
        "Latitude(deg)": 17.62961051644849,
        "Longitude(deg)": 172.83421836036152,
        "Mean Anomaly(deg)": 25.28666761673518,
        "RAAN(deg)": 254.9916813926613,
        "Satellite Name": "Constellation 1 1123",
        "Satellite Number": 1123,
        "Semi-Major Axis(m)": 7083131.272910544,
        "Time(s)": 147
    },
    {
        "Altitude(m)": 702847.8707499042,
        "Argument of Periapsis(deg)": 0.008872304924320031,
        "Eccentricity": 0.0,
        "Inclination(deg)": 45.0,
        "Latitude(deg)": 17.67058421361061,
        "Longitude(deg)": 172.87729471399084,
        "Mean Anomaly(deg)": 25.34736875698507,
        "RAAN(deg)": 254.99162480349574,
        "Satellite Name": "Constellation 1 1123",
        "Satellite Number": 1123,
        "Semi-Major Axis(m)": 7083131.272910544,
        "Time(s)": 148
    },
    {
        "Altitude(m)": 702850.3276603154,
        "Argument of Periapsis(deg)": 0.008932252930565437,
        "Eccentricity": 0.0,
        "Inclination(deg)": 45.0,
        "Latitude(deg)": 17.711546453839627,
        "Longitude(deg)": 172.92039261819173,
        "Mean Anomaly(deg)": 25.408069897234956,
        "RAAN(deg)": 254.99156821433013,
        "Satellite Name": "Constellation 1 1123",
        "Satellite Number": 1123,
        "Semi-Major Axis(m)": 7083131.272910544,
        "Time(s)": 149
    },
    {
        "Altitude(m)": 702852.8001867734,
        "Argument of Periapsis(deg)": 0.008992200936810843,
        "Eccentricity": 0.0,
        "Inclination(deg)": 45.0,
        "Latitude(deg)": 17.752497203747307,
        "Longitude(deg)": 172.9635119613547,
        "Mean Anomaly(deg)": 25.468771037484892,
        "RAAN(deg)": 254.99151162516458,
        "Satellite Name": "Constellation 1 1123",
        "Satellite Number": 1123,
        "Semi-Major Axis(m)": 7083131.272910544,
        "Time(s)": 150
    },
    {
        "Altitude(m)": 702855.2883009078,
        "Argument of Periapsis(deg)": 0.009052148943056249,
        "Eccentricity": 0.0,
        "Inclination(deg)": 45.0,
        "Latitude(deg)": 17.793436429902904,
        "Longitude(deg)": 173.0066527999984,
        "Mean Anomaly(deg)": 25.529472177734775,
        "RAAN(deg)": 254.99145503599902,
        "Satellite Name": "Constellation 1 1123",
        "Satellite Number": 1123,
        "Semi-Major Axis(m)": 7083131.272910544,
        "Time(s)": 151
    }
]